{
    "links": {
        "self": "http://www.neowsapp.com/rest/v1/neo/3426637?api_key=iIulBulltgU6a56xZRHN4H3l9WmuAYTsLGpBGhQ2"
    },
    "id": "3426637",
    "neo_reference_id": "3426637",
    "name": "(2008 RW)",
    "designation": "2008 RW",
    "nasa_jpl_url": "http://ssd.jpl.nasa.gov/sbdb.cgi?sstr=3426637",
    "absolute_magnitude_h": 22.8,
    "estimated_diameter": {
        "kilometers": {
            "estimated_diameter_min": 0.0732073989,
            "estimated_diameter_max": 0.1636967205
        },
        "meters": {
            "estimated_diameter_min": 73.2073989347,
            "estimated_diameter_max": 163.696720474
        },
        "miles": {
            "estimated_diameter_min": 0.0454889547,
            "estimated_diameter_max": 0.1017163949
        },
        "feet": {
            "estimated_diameter_min": 240.181762721,
            "estimated_diameter_max": 537.0627483999
        }
    },
    "is_potentially_hazardous_asteroid": false,
    "close_approach_data": [
        {
            "close_approach_date": "2008-09-10",
            "close_approach_date_full": "2008-Sep-10 21:16",
            "epoch_date_close_approach": 1221081360000,
            "relative_velocity": {
                "kilometers_per_second": "10.4043060105",
                "kilometers_per_hour": "37455.5016376463",
                "miles_per_hour": "23273.3921147919"
            },
            "miss_distance": {
                "astronomical": "0.0449743887",
                "lunar": "17.4950372043",
                "kilometers": "6728072.754072069",
                "miles": "4180630.5509657922"
            },
            "orbiting_body": "Earth"
        },
        {
            "close_approach_date": "2200-09-05",
            "close_approach_date_full": "2200-Sep-05 20:53",
            "epoch_date_close_approach": 7279534380000,
            "relative_velocity": {
                "kilometers_per_second": "12.8761323994",
                "kilometers_per_hour": "46354.0766378612",
                "miles_per_hour": "28802.6205642311"
            },
            "miss_distance": {
                "astronomical": "0.1026994085",
                "lunar": "39.9500699065",
                "kilometers": "15363612.761859895",
                "miles": "9546506.292840751"
            },
            "orbiting_body": "Earth"
        }
    ],
    "orbital_data": {
        "orbit_id": "8",
        "orbit_determination_date": "2017-04-06 09:03:01",
        "first_observation_date": "2008-09-02",
        "last_observation_date": "2008-09-11",
        "data_arc_in_days": 9,
        "observations_used": 39,
        "orbit_uncertainty": "8",
        "minimum_orbit_intersection": ".0442241",
        "jupiter_tisserand_invariant": "3.670",
        "epoch_osculation": "2454713.5",
        "eccentricity": ".5318502029256325",
        "semi_major_axis": "1.979344824744101",
        "inclination": "4.395243910351576",
        "ascending_node_longitude": "136.1043096288433",
        "orbital_period": "1017.139726098398",
        "perihelion_distance": ".9266298780441505",
        "perihelion_argument": "255.5306687030831",
        "aphelion_distance": "3.032059771444052",
        "perihelion_time": "2454753.770693113681",
        "mean_anomaly": "345.7468456408292",
        "mean_motion": ".3539336737745052",
        "equinox": "J2000",
        "orbit_class": {
            "orbit_class_type": "APO",
            "orbit_class_description": "Near-Earth asteroid orbits which cross the Earth’s orbit similar to that of 1862 Apollo",
            "orbit_class_range": "a (semi-major axis) > 1.0 AU; q (perihelion) < 1.017 AU"
        }
    },
    "is_sentry_object": false
}